[{"OBJECT_NAME":"STARLINK-35950","OBJECT_ID":"2025-271F","EPOCH":"2026-03-09T11:42:55.467072","MEAN_MOTION":15.30178221,"ECCENTRICITY":0.0001255,"INCLINATION":53.1566,"RA_OF_ASC_NODE":141.0272,"ARG_OF_PERICENTER":65.2395,"MEAN_ANOMALY":294.8736,"EPHEMERIS_TYPE":0,"CLASSIFICATION_TYPE":"U","NORAD_CAT_ID":66622,"ELEMENT_SET_NO":999,"REV_AT_EPOCH":1753,"BSTAR":0.0013183901,"MEAN_MOTION_DOT":0.00038866,"MEAN_MOTION_DDOT":0},{"OBJECT_NAME":"COSMOS 546","OBJECT_ID":"1973-005A","EPOCH":"2026-03-09T21:40:39.247392","MEAN_MOTION":15.29707303,"ECCENTRICITY":0.00147738,"INCLINATION":50.6327,"RA_OF_ASC_NODE":289.914,"ARG_OF_PERICENTER":261.1516,"MEAN_ANOMALY":98.7778,"EPHEMERIS_TYPE":0,"CLASSIFICATION_TYPE":"U","NORAD_CAT_ID":6350,"ELEMENT_SET_NO":999,"REV_AT_EPOCH":92802,"BSTAR":9.142057e-5,"MEAN_MOTION_DOT":2.316e-5,"MEAN_MOTION_DDOT":0}]
